{"type": "FeatureCollection", "features": [ {"type": "Feature", "properties": {"norad_id": 31287, "name": "FENGYUN 1C DEB", "group": "fengyun-1c-debris", "lat": -41.192496974767934, "lon": -139.33198653612683, "alt_km": 824.1754303676908, "timestamp": "2025-12-18T14:52:08.307424+00:00", "meta": {"OBJECT_NAME": "FENGYUN 1C DEB", "OBJECT_ID": "1999-025BNV", "EPOCH": "2025-12-17T09:14:55.199040", "MEAN_MOTION": 14.280549, "ECCENTRICITY": 0.0027206, "INCLINATION": 99.41, "RA_OF_ASC_NODE": 47.6846, "ARG_OF_PERICENTER": 50.1324, "MEAN_ANOMALY": 310.2241, "EPHEMERIS_TYPE": 0, "CLASSIFICATION_TYPE": "U", "NORAD_CAT_ID": 31287, "ELEMENT_SET_NO": 999, "REV_AT_EPOCH": 96752, "BSTAR": 0.0011667317, "MEAN_MOTION_DOT": 2.86e-05, "MEAN_MOTION_DDOT": 0}, "tle": {"line1": "1 31287U 99025BNV 25351.38536110  .00002860  00000+0  11667-2 0  9997", "line2": "2 31287  99.4100  47.6846 0027206  50.1324 310.2241 14.28054900967528"}}, "geometry": {"type": "Point", "coordinates": [-139.33198653612683, -41.192496974767934]}}, {"type": "Feature", "properties": {"norad_id": 31288, "name": "FENGYUN 1C DEB", "group": "fengyun-1c-debris", "lat": -2.567719890622053, "lon": 151.7457584949389, "alt_km": 578.6186085183717, "timestamp": "2025-12-18T14:52:08.307436+00:00", "meta": {"OBJECT_NAME": "FENGYUN 1C DEB", "OBJECT_ID": "1999-025BNW", "EPOCH": "2025-12-16T10:09:31.018752", "MEAN_MOTION": 14.96098786, "ECCENTRICITY": 0.0022775, "INCLINATION": 98.7461, "RA_OF_ASC_NODE": 148.8988, "ARG_OF_PERICENTER": 285.9174, "MEAN_ANOMALY": 128.7788, "EPHEMERIS_TYPE": 0, "CLASSIFICATION_TYPE": "U", "NORAD_CAT_ID": 31288, "ELEMENT_SET_NO": 999, "REV_AT_EPOCH": 97612, "BSTAR": 0.0036913925, "MEAN_MOTION_DOT": 0.00041884, "MEAN_MOTION_DDOT": 0}, "tle": {"line1": "1 31288U 99025BNW 25350.42327568  .00041884  00000+0  36914-2 0  9998", "line2": "2 31288  98.7461 148.8988 0022775 285.9174 128.7788 14.96098786976128"}}, "geometry": {"type": "Point", "coordinates": [151.7457584949389, -2.567719890622053]}}, {"type": "Feature", "properties": {"norad_id": 31293, "name": "FENGYUN 1C DEB", "group": "fengyun-1c-debris", "lat": -18.40887432909621, "lon": 3.025811370620796, "alt_km": 829.8626845570116, "timestamp": "2025-12-18T14:52:08.307447+00:00", "meta": {"OBJECT_NAME": "FENGYUN 1C DEB", "OBJECT_ID": "1999-025BPB", "EPOCH": "2025-12-18T06:33:54.864288", "MEAN_MOTION": 14.3081483, "ECCENTRICITY": 0.01256227, "INCLINATION": 98.4226, "RA_OF_ASC_NODE": 359.8639, "ARG_OF_PERICENTER": 228.3966, "MEAN_ANOMALY": 130.64, "EPHEMERIS_TYPE": 0, "CLASSIFICATION_TYPE": "U", "NORAD_CAT_ID": 31293, "ELEMENT_SET_NO": 999, "REV_AT_EPOCH": 65323, "BSTAR": 6.7010406e-05, "MEAN_MOTION_DOT": 1.47e-06, "MEAN_MOTION_DDOT": 0}, "tle": {"line1": "1 31293U 99025BPB 25352.27355167  .00000147  00000+0  67010-4 0  9995", "line2": "2 31293  98.4226 359.8639 0125622 228.3966 130.6400 14.30814830653233"}}, "geometry": {"type": "Point", "coordinates": [3.025811370620796, -18.40887432909621]}}, {"type": "Feature", "properties": {"norad_id": 31294, "name": "FENGYUN 1C DEB", "group": "fengyun-1c-debris", "lat": 74.5844338997222, "lon": -45.04901737344075, "alt_km": 861.4720074702645, "timestamp": "2025-12-18T14:52:08.307457+00:00", "meta": {"OBJECT_NAME": "FENGYUN 1C DEB", "OBJECT_ID": "1999-025BPC", "EPOCH": "2025-12-17T06:16:15.951936", "MEAN_MOTION": 14.15321844, "ECCENTRICITY": 0.00994564, "INCLINATION": 98.5431, "RA_OF_ASC_NODE": 346.6837, "ARG_OF_PERICENTER": 328.0986, "MEAN_ANOMALY": 31.419, "EPHEMERIS_TYPE": 0, "CLASSIFICATION_TYPE": "U", "NORAD_CAT_ID": 31294, "ELEMENT_SET_NO": 999, "REV_AT_EPOCH": 96917, "BSTAR": 0.00045241326, "MEAN_MOTION_DOT": 8.82e-06, "MEAN_MOTION_DDOT": 0}, "tle": {"line1": "1 31294U 99025BPC 25351.26129574  .00000882  00000+0  45241-3 0  9992", "line2": "2 31294  98.5431 346.6837 0099456 328.0986  31.4190 14.15321844969170"}}, "geometry": {"type": "Point", "coordinates": [-45.04901737344075, 74.5844338997222]}}, {"type": "Feature", "properties": {"norad_id": 31295, "name": "FENGYUN 1C DEB", "group": "fengyun-1c-debris", "lat": -7.3987058152695315, "lon": 178.08519791900818, "alt_km": 934.6323932502828, "timestamp": "2025-12-18T14:52:08.307467+00:00", "meta": {"OBJECT_NAME": "FENGYUN 1C DEB", "OBJECT_ID": "1999-025BPD", "EPOCH": "2025-12-18T04:35:24.508896", "MEAN_MOTION": 13.96834104, "ECCENTRICITY": 0.00770051, "INCLINATION": 98.3166, "RA_OF_ASC_NODE": 176.6094, "ARG_OF_PERICENTER": 235.7826, "MEAN_ANOMALY": 123.6026, "EPHEMERIS_TYPE": 0, "CLASSIFICATION_TYPE": "U", "NORAD_CAT_ID": 31295, "ELEMENT_SET_NO": 999, "REV_AT_EPOCH": 95579, "BSTAR": -3.7645843e-05, "MEAN_MOTION_DOT": -9.2e-07, "MEAN_MOTION_DDOT": 0}, "tle": {"line1": "1 31295U 99025BPD 25352.19125589 -.00000092  00000+0 -37646-4 0  9994", "line2": "2 31295  98.3166 176.6094 0077005 235.7826 123.6026 13.96834104955794"}}, "geometry": {"type": "Point", "coordinates": [178.08519791900818, -7.3987058152695315]}}, {"type": "Feature", "properties": {"norad_id": 31296, "name": "FENGYUN 1C DEB", "group": "fengyun-1c-debris", "lat": -61.95893453527542, "lon": -74.37059121068556, "alt_km": 665.5192045804706, "timestamp": "2025-12-18T14:52:08.307477+00:00", "meta": {"OBJECT_NAME": "FENGYUN 1C DEB", "OBJECT_ID": "1999-025BPE", "EPOCH": "2025-12-17T17:56:42.126720", "MEAN_MOTION": 14.7170516, "ECCENTRICITY": 0.00195655, "INCLINATION": 99.0666, "RA_OF_ASC_NODE": 267.2133, "ARG_OF_PERICENTER": 197.3213, "MEAN_ANOMALY": 162.7325, "EPHEMERIS_TYPE": 0, "CLASSIFICATION_TYPE": "U", "NORAD_CAT_ID": 31296, "ELEMENT_SET_NO": 999, "REV_AT_EPOCH": 97423, "BSTAR": 0.0030614559, "MEAN_MOTION_DOT": 0.00019134, "MEAN_MOTION_DDOT": 0}, "tle": {"line1": "1 31296U 99025BPE 25351.74770980  .00019134  00000+0  30615-2 0  9998", "line2": "2 31296  99.0666 267.2133 0019565 197.3213 162.7325 14.71705160974238"}}, "geometry": {"type": "Point", "coordinates": [-74.37059121068556, -61.95893453527542]}}, {"type": "Feature", "properties": {"norad_id": 31297, "name": "FENGYUN 1C DEB", "group": "fengyun-1c-debris", "lat": 72.35854225510052, "lon": -20.41823456754449, "alt_km": 596.5942328457913, "timestamp": "2025-12-18T14:52:08.307488+00:00", "meta": {"OBJECT_NAME": "FENGYUN 1C DEB", "OBJECT_ID": "1999-025BPF", "EPOCH": "2025-12-17T20:56:45.445344", "MEAN_MOTION": 14.57099305, "ECCENTRICITY": 0.01397373, "INCLINATION": 98.9337, "RA_OF_ASC_NODE": 129.1353, "ARG_OF_PERICENTER": 107.343, "MEAN_ANOMALY": 42.8197, "EPHEMERIS_TYPE": 0, "CLASSIFICATION_TYPE": "U", "NORAD_CAT_ID": 31297, "ELEMENT_SET_NO": 999, "REV_AT_EPOCH": 99390, "BSTAR": 0.00029077685, "MEAN_MOTION_DOT": 1.438e-05, "MEAN_MOTION_DDOT": 0}, "tle": {"line1": "1 31297U 99025BPF 25351.87274821  .00001438  00000+0  29078-3 0  9996", "line2": "2 31297  98.9337 129.1353 0139737 107.3430  42.8197 14.57099305993909"}}, "geometry": {"type": "Point", "coordinates": [-20.41823456754449, 72.35854225510052]}}, {"type": "Feature", "properties": {"norad_id": 31300, "name": "FENGYUN 1C DEB", "group": "fengyun-1c-debris", "lat": -59.18014946836474, "lon": -124.00191955684299, "alt_km": 890.2969754024016, "timestamp": "2025-12-18T14:52:08.307498+00:00", "meta": {"OBJECT_NAME": "FENGYUN 1C DEB", "OBJECT_ID": "1999-025BPJ", "EPOCH": "2025-12-17T17:58:04.647360", "MEAN_MOTION": 14.1514905, "ECCENTRICITY": 0.00599989, "INCLINATION": 99.5426, "RA_OF_ASC_NODE": 71.4444, "ARG_OF_PERICENTER": 46.0578, "MEAN_ANOMALY": 80.349, "EPHEMERIS_TYPE": 0, "CLASSIFICATION_TYPE": "U", "NORAD_CAT_ID": 31300, "ELEMENT_SET_NO": 999, "REV_AT_EPOCH": 96245, "BSTAR": 0.00096218549, "MEAN_MOTION_DOT": 1.851e-05, "MEAN_MOTION_DDOT": 0}, "tle": {"line1": "1 31300U 99025BPJ 25351.74866490  .00001851  00000+0  96219-3 0  9996", "line2": "2 31300  99.5426  71.4444 0059998  46.0578  80.3490 14.15149050962458"}}, "geometry": {"type": "Point", "coordinates": [-124.00191955684299, -59.18014946836474]}}, {"type": "Feature", "properties": {"norad_id": 31302, "name": "FENGYUN 1C DEB", "group": "fengyun-1c-debris", "lat": -18.00407732285498, "lon": 38.20021189329536, "alt_km": 794.1720954981829, "timestamp": "2025-12-18T14:52:08.307508+00:00", "meta": {"OBJECT_NAME": "FENGYUN 1C DEB", "OBJECT_ID": "1999-025BPL", "EPOCH": "2025-12-17T02:04:57.059328", "MEAN_MOTION": 14.27561304, "ECCENTRICITY": 0.00266845, "INCLINATION": 99.414, "RA_OF_ASC_NODE": 33.4598, "ARG_OF_PERICENTER": 42.7026, "MEAN_ANOMALY": 346.5219, "EPHEMERIS_TYPE": 0, "CLASSIFICATION_TYPE": "U", "NORAD_CAT_ID": 31302, "ELEMENT_SET_NO": 999, "REV_AT_EPOCH": 96420, "BSTAR": 0.0010670655, "MEAN_MOTION_DOT": 2.585e-05, "MEAN_MOTION_DDOT": 0}, "tle": {"line1": "1 31302U 99025BPL 25351.08677152  .00002585  00000+0  10671-2 0  9992", "line2": "2 31302  99.4140  33.4598 0026684  42.7026 346.5219 14.27561304964201"}}, "geometry": {"type": "Point", "coordinates": [38.20021189329536, -18.00407732285498]}}, {"type": "Feature", "properties": {"norad_id": 31303, "name": "FENGYUN 1C DEB", "group": "fengyun-1c-debris", "lat": 77.83986248718668, "lon": -36.671885846004656, "alt_km": 843.5846450270965, "timestamp": "2025-12-18T14:52:08.307518+00:00", "meta": {"OBJECT_NAME": "FENGYUN 1C DEB", "OBJECT_ID": "1999-025BPM", "EPOCH": "2025-12-16T21:38:24.008064", "MEAN_MOTION": 14.11026834, "ECCENTRICITY": 0.00117848, "INCLINATION": 98.7043, "RA_OF_ASC_NODE": 6.9757, "ARG_OF_PERICENTER": 140.8786, "MEAN_ANOMALY": 219.3239, "EPHEMERIS_TYPE": 0, "CLASSIFICATION_TYPE": "U", "NORAD_CAT_ID": 31303, "ELEMENT_SET_NO": 999, "REV_AT_EPOCH": 96377, "BSTAR": 0.00013953251, "MEAN_MOTION_DOT": 2.08e-06, "MEAN_MOTION_DDOT": 0}, "tle": {"line1": "1 31303U 99025BPM 25350.90166676  .00000208  00000+0  13953-3 0  9994", "line2": "2 31303  98.7043   6.9757 0011784 140.8786 219.3239 14.11026834963773"}}, "geometry": {"type": "Point", "coordinates": [-36.671885846004656, 77.83986248718668]}}]}